GSLV R/B                
1 54149U 22138AN  26062.83743252  .00005361  00000+0  46473-3 0  9990
2 54149  87.3886 168.3206 0022134 166.9922 193.1886 14.96724659183054
XRISM                   
1 57800U 23137A   26063.02731354  .00008362  00000+0  47679-3 0  9992
2 57800  31.0031 320.2862 0008161 341.2942  18.7396 15.11422447136931
ACS3                    
1 59588U 24077B   26062.80903508  .00029576  00000+0  23917-1 0  9995
2 59588  97.2109   5.2431 0055358  92.4851 268.2652 13.89316216 93389
SZ-21 MODULE            
1 66515U 25246C   26062.76916662  .00044751  00000+0  39281-3 0  9997
2 66515  41.4730 239.7930 0001447 287.9355  72.1329 15.68011820 17141
